SIRION PATHFINDER-2     
1 43759U 18099B   26164.08548340  .00005274  00000+0  28967-3 0  9998
2 43759  97.4258 213.2402 0007525 321.9563  38.1137 15.14514210412001
CORVUS BC4              
1 43767U 18099K   26164.08649146  .00004295  00000+0  25037-3 0  9990
2 43767  97.4069 207.1866 0008726  26.5723 333.5953 15.12463519411781
M2 PATHFINDER           
1 45727U 20037E   26164.05678456  .00002324  00000+0  16962-3 0  9994
2 45727  97.8154 355.2425 0012156 159.0207 201.1520 15.04661676324873
NETSAT-4                
1 46504U 20068U   26163.97651874  .00018376  00000+0  40842-3 0  9995
2 46504  97.8599 171.8791 0004328 357.0583   3.0638 15.43731077315120
NETSAT-3                
1 46505U 20068V   26163.97955176  .00018445  00000+0  42660-3 0  9995
2 46505  97.8650 170.1040 0004816  17.0233 343.1174 15.42537750315039
NETSAT-1                
1 46506U 20068W   26163.96228647  .00013476  00000+0  40478-3 0  9995
2 46506  97.8741 164.4663 0005538  44.6891 315.4797 15.34548834314652
NETSAT-2                
1 46507U 20068X   26164.28126168  .00021400  00000+0  44238-3 0  9991
2 46507  97.8612 172.0883 0003931  38.0825 322.0700 15.45840278315139
GREENCUBE (IO-117)      
1 53109U 22080E   26152.46502029 -.00000003  00000+0  00000+0 0  9996
2 53109  70.1435 303.7143 0008869 293.3663  66.6064  6.42583280 91055
SITRO-AIS 5 (KATYS)     
1 57176U 23091L   26164.27524992  .00012041  00000+0  42419-3 0  9990
2 57176  97.5068 228.1372 0012766 115.5441 244.7121 15.29370876163741
SITRO-AIS 6 (CHIRKIN)   
1 57192U 23091AC  26164.24519109  .00010712  00000+0  41998-3 0  9993
2 57192  97.5077 227.2469 0013098 118.5629 241.6929 15.25864051163680
SITRO-AIS 8 (ANOKHIN)   
1 57193U 23091AD  26164.23377929  .00014788  00000+0  47928-3 0  9991
2 57193  97.5065 229.6680 0011849 112.0304 248.2197 15.32034540163848
SITRO-AIS 7 (FARTUSHNIY)
1 57194U 23091AE  26164.24753621  .00010408  00000+0  41201-3 0  9993
2 57194  97.5074 227.0763 0012914 119.5236 240.7291 15.25553235163675
SITRO-AIS 10 (BURDAEV)  
1 57199U 23091AK  26164.28191068  .00020738  00000+0  54726-3 0  9996
2 57199  97.5090 234.7307 0007703  91.7618 268.4509 15.38471804164161
SITRO-AIS 9 (SHCHUKIN)  
1 57201U 23091AM  26164.24200877  .00018687  00000+0  50131-3 0  9991
2 57201  97.5087 234.4230 0007973  92.0147 268.2010 15.37984468164140
SITRO-AIS 12 (SMIRENNIY)
1 57204U 23091AQ  26164.23337790  .00020040  00000+0  53238-3 0  9995
2 57204  97.5101 234.8788 0007536  87.0992 273.1115 15.38274201164160
SITRO-AIS 11 (SHEFFER)  
1 57208U 23091AU  26164.24788228  .00019541  00000+0  51214-3 0  9992
2 57208  97.5099 235.1378 0007439  86.8477 273.3619 15.38697483164180
SITRO-AIS 25            
1 59066U 24039R   26164.28922867  .00002649  00000+0  20807-3 0  9997
2 59066  95.3914 232.4137 0143959 342.5245  17.1054 14.93496008124141
SITRO-AIS 26            
1 59067U 24039S   26164.29006980  .00002528  00000+0  19962-3 0  9994
2 59067  95.3915 232.3127 0144306 343.0975  16.5468 14.93292285124136
SITRO-AIS 27            
1 59068U 24039T   26164.26141145  .00003463  00000+0  26999-3 0  9992
2 59068  95.3916 232.5628 0143280 341.7874  17.8249 14.93710942124157
SITRO-AIS 28            
1 59071U 24039U   26164.30592692  .00002633  00000+0  20586-3 0  9992
2 59071  95.3917 232.6405 0143217 341.4626  18.1411 14.93743467124162
GRBBETA                 
1 60237U 24128C   26164.30428810  .00003355  00000+0  23558-3 0  9991
2 60237  61.9896 229.8892 0041131 133.8417 226.6088 15.06616120105686
OOV-CUBE (TUBSAT-30)    
1 60240U 24128F   26163.73041624  .00002175  00000+0  17414-3 0  9998
2 60240  61.9949 241.1135 0045186 132.7412 227.7496 15.02757002105443
ROBUSTA-3A (MEDITERRAN*)
1 60243U 24128J   26164.23212749  .00006618  00000+0  39222-3 0  9992
2 60243  61.9859 222.2311 0041749 127.4216 233.0691 15.11635728105825
LASARSAT                
1 62391U 24247Q   26164.03542991  .00033880  00000+0  67956-3 0  9999
2 62391  44.9751 285.5409 0008385 308.2774  51.7361 15.46129716 82679
CROCUBE                 
1 62394U 24247T   26164.23188951  .00037737  00000+0  70838-3 0  9994
2 62394  44.9724 281.8337 0008214 312.6553  47.3644 15.48000341 82732
FORESAIL-1 PRIME        
1 66778U 25276DS  26163.71380747  .00004953  00000+0  24220-3 0  9994
2 66778  97.4204 237.0662 0003882 112.3227 247.8420 15.18663078 29729
KNACKSAT-2              
1 67683U 98067XZ  26163.67352989  .00051962  00000+0  64153-3 0  9991
2 67683  51.6304 317.1752 0009713 195.1323 164.9380 15.59578494 19571
