OBJECT_NAME,OBJECT_ID,EPOCH,MEAN_MOTION,ECCENTRICITY,INCLINATION,RA_OF_ASC_NODE,ARG_OF_PERICENTER,MEAN_ANOMALY,EPHEMERIS_TYPE,CLASSIFICATION_TYPE,NORAD_CAT_ID,ELEMENT_SET_NO,REV_AT_EPOCH,BSTAR,MEAN_MOTION_DOT,MEAN_MOTION_DDOT
SIRION PATHFINDER-2,2018-099B,2026-06-13T02:03:05.765760,15.14514210,.00075252,97.4258,213.2402,321.9563,38.1137,0,U,43759,999,41200,.28966682E-3,.5274E-4,0
CORVUS BC4,2018-099K,2026-06-13T02:04:32.862144,15.12463519,.00087268,97.4069,207.1866,26.5723,333.5953,0,U,43767,999,41178,.25037159E-3,.4295E-4,0
M2 PATHFINDER,2020-037E,2026-06-13T01:21:46.185984,15.04661676,.00121561,97.8154,355.2425,159.0207,201.1520,0,U,45727,999,32487,.16961536E-3,.2324E-4,0
NETSAT-4,2020-068U,2026-06-12T23:26:11.219136,15.43731077,.00043281,97.8599,171.8791,357.0583,3.0638,0,U,46504,999,31512,.40841694E-3,.18376E-3,0
NETSAT-3,2020-068V,2026-06-12T23:30:33.272064,15.42537750,.00048166,97.8650,170.1040,17.0233,343.1174,0,U,46505,999,31503,.42659574E-3,.18445E-3,0
NETSAT-1,2020-068W,2026-06-12T23:05:41.551008,15.34548834,.00055389,97.8741,164.4663,44.6891,315.4797,0,U,46506,999,31465,.40478417E-3,.13476E-3,0
NETSAT-2,2020-068X,2026-06-13T06:45:01.009152,15.45840278,.00039315,97.8612,172.0883,38.0825,322.0700,0,U,46507,999,31513,.44238467E-3,.214E-3,0
GREENCUBE (IO-117),2022-080E,2026-06-01T11:09:37.753056,6.42583280,.00088692,70.1435,303.7143,293.3663,66.6064,0,U,53109,999,9105,0,-.3E-7,0
SITRO-AIS 5 (KATYS),2023-091L,2026-06-13T06:36:21.593088,15.29370876,.00127668,97.5068,228.1372,115.5441,244.7121,0,U,57176,999,16374,.42418691E-3,.12041E-3,0
SITRO-AIS 6 (CHIRKIN),2023-091AC,2026-06-13T05:53:04.510176,15.25864051,.00130981,97.5077,227.2469,118.5629,241.6929,0,U,57192,999,16368,.41997756E-3,.10712E-3,0
SITRO-AIS 8 (ANOKHIN),2023-091AD,2026-06-13T05:36:38.530656,15.32034540,.00118493,97.5065,229.6680,112.0304,248.2197,0,U,57193,999,16384,.47928499E-3,.14788E-3,0
SITRO-AIS 7 (FARTUSHNIY),2023-091AE,2026-06-13T05:56:27.128544,15.25553235,.00129145,97.5074,227.0763,119.5236,240.7291,0,U,57194,999,16367,.41201103E-3,.10408E-3,0
SITRO-AIS 10 (BURDAEV),2023-091AK,2026-06-13T06:45:57.082752,15.38471804,.00077039,97.5090,234.7307,91.7618,268.4509,0,U,57199,999,16416,.5472648E-3,.20738E-3,0
SITRO-AIS 9 (SHCHUKIN),2023-091AM,2026-06-13T05:48:29.557728,15.37984468,.00079739,97.5087,234.4230,92.0147,268.2010,0,U,57201,999,16414,.50130677E-3,.18687E-3,0
SITRO-AIS 12 (SMIRENNIY),2023-091AQ,2026-06-13T05:36:03.850560,15.38274201,.00075363,97.5101,234.8788,87.0992,273.1115,0,U,57204,999,16416,.53237681E-3,.2004E-3,0
SITRO-AIS 11 (SHEFFER),2023-091AU,2026-06-13T05:56:57.028992,15.38697483,.00074397,97.5099,235.1378,86.8477,273.3619,0,U,57208,999,16418,.51214411E-3,.19541E-3,0
SITRO-AIS 25,2024-039R,2026-06-13T06:56:29.357088,14.93496008,.0143959,95.3914,232.4137,342.5245,17.1054,0,U,59066,999,12414,.20807028E-3,.2649E-4,0
SITRO-AIS 26,2024-039S,2026-06-13T06:57:42.030720,14.93292285,.01443069,95.3915,232.3127,343.0975,16.5468,0,U,59067,999,12413,.19962188E-3,.2528E-4,0
SITRO-AIS 27,2024-039T,2026-06-13T06:16:25.949280,14.93710942,.01432801,95.3916,232.5628,341.7874,17.8249,0,U,59068,999,12415,.26998956E-3,.3463E-4,0
SITRO-AIS 28,2024-039U,2026-06-13T07:20:32.085888,14.93743467,.01432179,95.3917,232.6405,341.4626,18.1411,0,U,59071,999,12416,.20586465E-3,.2633E-4,0
GRBBETA,2024-128C,2026-06-13T07:18:10.491840,15.06616120,.00411317,61.9896,229.8892,133.8417,226.6088,0,U,60237,999,10568,.23558412E-3,.3355E-4,0
OOV-CUBE (TUBSAT-30),2024-128F,2026-06-12T17:31:47.963136,15.02757002,.00451863,61.9949,241.1135,132.7412,227.7496,0,U,60240,999,10544,.17414297E-3,.2175E-4,0
ROBUSTA-3A (MEDITERRANEE),2024-128J,2026-06-13T05:34:15.815136,15.11635728,.00417497,61.9859,222.2311,127.4216,233.0691,0,U,60243,999,10582,.39222439E-3,.6618E-4,0
LASARSAT,2024-247Q,2026-06-13T00:51:01.144224,15.46129716,.00083857,44.9751,285.5409,308.2774,51.7361,0,U,62391,999,8267,.67955671E-3,.3388E-3,0
CROCUBE,2024-247T,2026-06-13T05:33:55.253664,15.48000341,.0008214,44.9724,281.8337,312.6553,47.3644,0,U,62394,999,8273,.70838393E-3,.37737E-3,0
FORESAIL-1 PRIME,2025-276DS,2026-06-12T17:07:52.965408,15.18663078,.00038825,97.4204,237.0662,112.3227,247.8420,0,U,66778,999,2972,.2422012E-3,.4953E-4,0
KNACKSAT-2,1998-067XZ,2026-06-12T16:09:52.982496,15.59578494,.00097136,51.6304,317.1752,195.1323,164.9380,0,U,67683,999,1957,.64153287E-3,.51962E-3,0
